KUIPER-00167            
1 65780U 25217U   25298.70570616  .00049132  00000+0  13833-2 0  9999
2 65780  51.8685 296.8093 0005498 203.8392 156.2340 15.35962866  4658
KUIPER-00168            
1 65781U 25217V   25298.60621267  .00056378  00000+0  15002-2 0  9998
2 65781  51.8733 296.9040 0002379  78.1961 281.9292 15.37665996  4643
KUIPER-00169            
1 65782U 25217W   25298.94637273  .00042513  00000+0  11615-2 0  9992
2 65782  51.8719 295.4302 0002415 166.2252 193.8801 15.36974852  4691
KUIPER-00170            
1 65783U 25217X   25298.50864271  .00028333  00000+0  80366-3 0  9999
2 65783  51.8677 297.7364 0005378 191.6759 168.4103 15.35995595  4625
KUIPER-00171            
1 65784U 25217Y   25298.91668981  .00209583  00000+0  48325-2 0  9991
2 65784  51.8683 295.5458 0006347 189.6207  18.1005 15.41250833  4814
KUIPER-00172            
1 65785U 25217Z   25298.48309325  .00045066  00000+0  12143-2 0  9991
2 65785  51.8728 297.5769 0002457 125.7949 234.3266 15.37378105  4622
KUIPER-00173            
1 65786U 25217AA  25298.48742742  .00040234  00000+0  10935-2 0  9995
2 65786  51.8710 297.6063 0002694 139.7035 220.4152 15.37161508  4623
KUIPER-00174            
1 65787U 25217AB  25298.54331657  .00049354  00000+0  13206-2 0  9998
2 65787  51.8732 297.2296 0002946  91.0081 269.1244 15.37551236  4637
