<?xml version="1.0" encoding="UTF-8"?>
<ndm xmlns:xsi="http://www.w3.org/2001/XMLSchema-instance" xsi:noNamespaceSchemaLocation="https://sanaregistry.org/r/ndmxml_unqualified/ndmxml-2.0.0-master-2.0.xsd">
<omm id="CCSDS_OMM_VERS" version="2.0">
<header><CREATION_DATE/><ORIGINATOR/></header><body><segment><metadata><OBJECT_NAME>KUIPER-00167</OBJECT_NAME><OBJECT_ID>2025-217U</OBJECT_ID><CENTER_NAME>EARTH</CENTER_NAME><REF_FRAME>TEME</REF_FRAME><TIME_SYSTEM>UTC</TIME_SYSTEM><MEAN_ELEMENT_THEORY>SGP4</MEAN_ELEMENT_THEORY></metadata><data><meanElements><EPOCH>2025-10-25T16:56:13.012224</EPOCH><MEAN_MOTION>15.35962866</MEAN_MOTION><ECCENTRICITY>.00054989</ECCENTRICITY><INCLINATION>51.8685</INCLINATION><RA_OF_ASC_NODE>296.8093</RA_OF_ASC_NODE><ARG_OF_PERICENTER>203.8392</ARG_OF_PERICENTER><MEAN_ANOMALY>156.2340</MEAN_ANOMALY></meanElements><tleParameters><EPHEMERIS_TYPE>0</EPHEMERIS_TYPE><CLASSIFICATION_TYPE>U</CLASSIFICATION_TYPE><NORAD_CAT_ID>65780</NORAD_CAT_ID><ELEMENT_SET_NO>999</ELEMENT_SET_NO><REV_AT_EPOCH>465</REV_AT_EPOCH><BSTAR>.13832832E-2</BSTAR><MEAN_MOTION_DOT>.49132E-3</MEAN_MOTION_DOT><MEAN_MOTION_DDOT>0</MEAN_MOTION_DDOT></tleParameters></data></segment></body></omm>
<omm id="CCSDS_OMM_VERS" version="2.0">
<header><CREATION_DATE/><ORIGINATOR/></header><body><segment><metadata><OBJECT_NAME>KUIPER-00168</OBJECT_NAME><OBJECT_ID>2025-217V</OBJECT_ID><CENTER_NAME>EARTH</CENTER_NAME><REF_FRAME>TEME</REF_FRAME><TIME_SYSTEM>UTC</TIME_SYSTEM><MEAN_ELEMENT_THEORY>SGP4</MEAN_ELEMENT_THEORY></metadata><data><meanElements><EPOCH>2025-10-25T14:32:56.774688</EPOCH><MEAN_MOTION>15.37665996</MEAN_MOTION><ECCENTRICITY>.00023794</ECCENTRICITY><INCLINATION>51.8733</INCLINATION><RA_OF_ASC_NODE>296.9040</RA_OF_ASC_NODE><ARG_OF_PERICENTER>78.1961</ARG_OF_PERICENTER><MEAN_ANOMALY>281.9292</MEAN_ANOMALY></meanElements><tleParameters><EPHEMERIS_TYPE>0</EPHEMERIS_TYPE><CLASSIFICATION_TYPE>U</CLASSIFICATION_TYPE><NORAD_CAT_ID>65781</NORAD_CAT_ID><ELEMENT_SET_NO>999</ELEMENT_SET_NO><REV_AT_EPOCH>464</REV_AT_EPOCH><BSTAR>.1500155E-2</BSTAR><MEAN_MOTION_DOT>.56378E-3</MEAN_MOTION_DOT><MEAN_MOTION_DDOT>0</MEAN_MOTION_DDOT></tleParameters></data></segment></body></omm>
<omm id="CCSDS_OMM_VERS" version="2.0">
<header><CREATION_DATE/><ORIGINATOR/></header><body><segment><metadata><OBJECT_NAME>KUIPER-00169</OBJECT_NAME><OBJECT_ID>2025-217W</OBJECT_ID><CENTER_NAME>EARTH</CENTER_NAME><REF_FRAME>TEME</REF_FRAME><TIME_SYSTEM>UTC</TIME_SYSTEM><MEAN_ELEMENT_THEORY>SGP4</MEAN_ELEMENT_THEORY></metadata><data><meanElements><EPOCH>2025-10-25T22:42:46.603872</EPOCH><MEAN_MOTION>15.36974852</MEAN_MOTION><ECCENTRICITY>.00024156</ECCENTRICITY><INCLINATION>51.8719</INCLINATION><RA_OF_ASC_NODE>295.4302</RA_OF_ASC_NODE><ARG_OF_PERICENTER>166.2252</ARG_OF_PERICENTER><MEAN_ANOMALY>193.8801</MEAN_ANOMALY></meanElements><tleParameters><EPHEMERIS_TYPE>0</EPHEMERIS_TYPE><CLASSIFICATION_TYPE>U</CLASSIFICATION_TYPE><NORAD_CAT_ID>65782</NORAD_CAT_ID><ELEMENT_SET_NO>999</ELEMENT_SET_NO><REV_AT_EPOCH>469</REV_AT_EPOCH><BSTAR>.11614728E-2</BSTAR><MEAN_MOTION_DOT>.42513E-3</MEAN_MOTION_DOT><MEAN_MOTION_DDOT>0</MEAN_MOTION_DDOT></tleParameters></data></segment></body></omm>
<omm id="CCSDS_OMM_VERS" version="2.0">
<header><CREATION_DATE/><ORIGINATOR/></header><body><segment><metadata><OBJECT_NAME>KUIPER-00170</OBJECT_NAME><OBJECT_ID>2025-217X</OBJECT_ID><CENTER_NAME>EARTH</CENTER_NAME><REF_FRAME>TEME</REF_FRAME><TIME_SYSTEM>UTC</TIME_SYSTEM><MEAN_ELEMENT_THEORY>SGP4</MEAN_ELEMENT_THEORY></metadata><data><meanElements><EPOCH>2025-10-25T12:12:26.730144</EPOCH><MEAN_MOTION>15.35995595</MEAN_MOTION><ECCENTRICITY>.00053789</ECCENTRICITY><INCLINATION>51.8677</INCLINATION><RA_OF_ASC_NODE>297.7364</RA_OF_ASC_NODE><ARG_OF_PERICENTER>191.6759</ARG_OF_PERICENTER><MEAN_ANOMALY>168.4103</MEAN_ANOMALY></meanElements><tleParameters><EPHEMERIS_TYPE>0</EPHEMERIS_TYPE><CLASSIFICATION_TYPE>U</CLASSIFICATION_TYPE><NORAD_CAT_ID>65783</NORAD_CAT_ID><ELEMENT_SET_NO>999</ELEMENT_SET_NO><REV_AT_EPOCH>462</REV_AT_EPOCH><BSTAR>.80366389E-3</BSTAR><MEAN_MOTION_DOT>.28333E-3</MEAN_MOTION_DOT><MEAN_MOTION_DDOT>0</MEAN_MOTION_DDOT></tleParameters></data></segment></body></omm>
<omm id="CCSDS_OMM_VERS" version="2.0">
<header><CREATION_DATE/><ORIGINATOR/></header><body><segment><metadata><OBJECT_NAME>KUIPER-00171</OBJECT_NAME><OBJECT_ID>2025-217Y</OBJECT_ID><CENTER_NAME>EARTH</CENTER_NAME><REF_FRAME>TEME</REF_FRAME><TIME_SYSTEM>UTC</TIME_SYSTEM><MEAN_ELEMENT_THEORY>SGP4</MEAN_ELEMENT_THEORY></metadata><data><meanElements><EPOCH>2025-10-25T22:00:01.999584</EPOCH><MEAN_MOTION>15.41250833</MEAN_MOTION><ECCENTRICITY>.0006347</ECCENTRICITY><INCLINATION>51.8683</INCLINATION><RA_OF_ASC_NODE>295.5458</RA_OF_ASC_NODE><ARG_OF_PERICENTER>189.6207</ARG_OF_PERICENTER><MEAN_ANOMALY>18.1005</MEAN_ANOMALY></meanElements><tleParameters><EPHEMERIS_TYPE>0</EPHEMERIS_TYPE><CLASSIFICATION_TYPE>U</CLASSIFICATION_TYPE><NORAD_CAT_ID>65784</NORAD_CAT_ID><ELEMENT_SET_NO>999</ELEMENT_SET_NO><REV_AT_EPOCH>481</REV_AT_EPOCH><BSTAR>.4832543E-2</BSTAR><MEAN_MOTION_DOT>.209583E-2</MEAN_MOTION_DOT><MEAN_MOTION_DDOT>0</MEAN_MOTION_DDOT></tleParameters></data></segment></body></omm>
<omm id="CCSDS_OMM_VERS" version="2.0">
<header><CREATION_DATE/><ORIGINATOR/></header><body><segment><metadata><OBJECT_NAME>KUIPER-00172</OBJECT_NAME><OBJECT_ID>2025-217Z</OBJECT_ID><CENTER_NAME>EARTH</CENTER_NAME><REF_FRAME>TEME</REF_FRAME><TIME_SYSTEM>UTC</TIME_SYSTEM><MEAN_ELEMENT_THEORY>SGP4</MEAN_ELEMENT_THEORY></metadata><data><meanElements><EPOCH>2025-10-25T11:35:39.256800</EPOCH><MEAN_MOTION>15.37378105</MEAN_MOTION><ECCENTRICITY>.00024573</ECCENTRICITY><INCLINATION>51.8728</INCLINATION><RA_OF_ASC_NODE>297.5769</RA_OF_ASC_NODE><ARG_OF_PERICENTER>125.7949</ARG_OF_PERICENTER><MEAN_ANOMALY>234.3266</MEAN_ANOMALY></meanElements><tleParameters><EPHEMERIS_TYPE>0</EPHEMERIS_TYPE><CLASSIFICATION_TYPE>U</CLASSIFICATION_TYPE><NORAD_CAT_ID>65785</NORAD_CAT_ID><ELEMENT_SET_NO>999</ELEMENT_SET_NO><REV_AT_EPOCH>462</REV_AT_EPOCH><BSTAR>.12142871E-2</BSTAR><MEAN_MOTION_DOT>.45066E-3</MEAN_MOTION_DOT><MEAN_MOTION_DDOT>0</MEAN_MOTION_DDOT></tleParameters></data></segment></body></omm>
<omm id="CCSDS_OMM_VERS" version="2.0">
<header><CREATION_DATE/><ORIGINATOR/></header><body><segment><metadata><OBJECT_NAME>KUIPER-00173</OBJECT_NAME><OBJECT_ID>2025-217AA</OBJECT_ID><CENTER_NAME>EARTH</CENTER_NAME><REF_FRAME>TEME</REF_FRAME><TIME_SYSTEM>UTC</TIME_SYSTEM><MEAN_ELEMENT_THEORY>SGP4</MEAN_ELEMENT_THEORY></metadata><data><meanElements><EPOCH>2025-10-25T11:41:53.729088</EPOCH><MEAN_MOTION>15.37161508</MEAN_MOTION><ECCENTRICITY>.00026946</ECCENTRICITY><INCLINATION>51.8710</INCLINATION><RA_OF_ASC_NODE>297.6063</RA_OF_ASC_NODE><ARG_OF_PERICENTER>139.7035</ARG_OF_PERICENTER><MEAN_ANOMALY>220.4152</MEAN_ANOMALY></meanElements><tleParameters><EPHEMERIS_TYPE>0</EPHEMERIS_TYPE><CLASSIFICATION_TYPE>U</CLASSIFICATION_TYPE><NORAD_CAT_ID>65786</NORAD_CAT_ID><ELEMENT_SET_NO>999</ELEMENT_SET_NO><REV_AT_EPOCH>462</REV_AT_EPOCH><BSTAR>.10934937E-2</BSTAR><MEAN_MOTION_DOT>.40234E-3</MEAN_MOTION_DOT><MEAN_MOTION_DDOT>0</MEAN_MOTION_DDOT></tleParameters></data></segment></body></omm>
<omm id="CCSDS_OMM_VERS" version="2.0">
<header><CREATION_DATE/><ORIGINATOR/></header><body><segment><metadata><OBJECT_NAME>KUIPER-00174</OBJECT_NAME><OBJECT_ID>2025-217AB</OBJECT_ID><CENTER_NAME>EARTH</CENTER_NAME><REF_FRAME>TEME</REF_FRAME><TIME_SYSTEM>UTC</TIME_SYSTEM><MEAN_ELEMENT_THEORY>SGP4</MEAN_ELEMENT_THEORY></metadata><data><meanElements><EPOCH>2025-10-25T13:02:22.551648</EPOCH><MEAN_MOTION>15.37551236</MEAN_MOTION><ECCENTRICITY>.00029465</ECCENTRICITY><INCLINATION>51.8732</INCLINATION><RA_OF_ASC_NODE>297.2296</RA_OF_ASC_NODE><ARG_OF_PERICENTER>91.0081</ARG_OF_PERICENTER><MEAN_ANOMALY>269.1244</MEAN_ANOMALY></meanElements><tleParameters><EPHEMERIS_TYPE>0</EPHEMERIS_TYPE><CLASSIFICATION_TYPE>U</CLASSIFICATION_TYPE><NORAD_CAT_ID>65787</NORAD_CAT_ID><ELEMENT_SET_NO>999</ELEMENT_SET_NO><REV_AT_EPOCH>463</REV_AT_EPOCH><BSTAR>.13206076E-2</BSTAR><MEAN_MOTION_DOT>.49354E-3</MEAN_MOTION_DOT><MEAN_MOTION_DDOT>0</MEAN_MOTION_DDOT></tleParameters></data></segment></body></omm>

</ndm>
